EUTELSAT 21B            
1 38992U 12062B   26024.29260172  .00000145  00000+0  00000+0 0  9993
2 38992   0.0670  13.8756 0002923 292.0045 304.6343  1.00272172 48382
EUTELSAT 70B            
1 39020U 12069A   26024.44496259 -.00000028  00000+0  00000+0 0  9998
2 39020   0.0617   1.6668 0003318 275.4655  77.2870  1.00271352 48066
EUTELSAT 117 WEST A     
1 39122U 13012A   26024.40255229  .00000002  00000+0  00000+0 0  9997
2 39122   0.0084  39.4775 0002984 269.3644 202.9857  1.00270333 46993
EUTELSAT 7B             
1 39163U 13022A   26024.36106879  .00000063  00000+0  00000+0 0  9991
2 39163   0.0656   1.5936 0005666 332.0818 286.9723  1.00272034 46504
EXPRESS-AT1             
1 39612U 14010A   26024.44210258  .00000094  00000+0  00000+0 0  9998
2 39612   0.0102  24.9003 0000387 133.2819 180.7244  1.00272516 43376
EXPRESS-AT2             
1 39613U 14010B   26024.53006973 -.00000266  00000+0  00000+0 0  9998
2 39613   0.0098  36.8761 0001769 236.1465 181.4989  1.00272878 43060
EUTELSAT 3B             
1 39773U 14030A   26024.36028876  .00000035  00000+0  00000+0 0  9997
2 39773   0.0623 349.2238 0003242 260.2402   7.0036  1.00270169 42626
EUTELSAT 115 WEST B     
1 40425U 15010B   26024.34488985  .00000000  00000+0  00000+0 0  9993
2 40425   0.0276 103.0728 0000622 267.8612 121.9863  1.00276335 39958
